{
  "type": "FeatureCollection",
  "features": [
    {
      "type": "Feature",
      "geometry": {
        "type": "Point",
        "coordinates": [
          -105.0188881082992,
          39.608274887955744
        ]
      },
      "properties": {
        "name": "Arapahoe Community College",
        "address": "5900 S Santa Fe Dr",
        "city": "Littleton",
        "state": "CO",
        "zip": "80120",
        "latitude": 39.608274887955744,
        "longitude": -105.0188881082992
      }
    },
    {
      "type": "Feature",
      "geometry": {
        "type": "Point",
        "coordinates": [
          -104.81474986607813,
          39.7087716881346
        ]
      },
      "properties": {
        "name": "Arapahoe County CentrePoint Plaza",
        "address": "14980 E Alameda Dr",
        "city": "Aurora",
        "state": "CO",
        "zip": "80012",
        "latitude": 39.7087716881346,
        "longitude": -104.81474986607813
      }
    },
    {
      "type": "Feature",
      "geometry": {
        "type": "Point",
        "coordinates": [
          -104.68912718495126,
          39.633553212446316
        ]
      },
      "properties": {
        "name": "Arapahoe County Fairgrounds",
        "address": "25690 E Quincy Ave",
        "city": "Aurora",
        "state": "CO",
        "zip": "80016",
        "latitude": 39.633553212446316,
        "longitude": -104.68912718495126
      }
    },
    {
      "type": "Feature",
      "geometry": {
        "type": "Point",
        "coordinates": [
          -104.85627912782668,
          39.590544313360326
        ]
      },
      "properties": {
        "name": "Arapahoe County Lima Plaza",
        "address": "6954 S Lima St",
        "city": "Centennial",
        "state": "CO",
        "zip": "80112",
        "latitude": 39.590544313360326,
        "longitude": -104.85627912782668
      }
    },
    {
      "type": "Feature",
      "geometry": {
        "type": "Point",
        "coordinates": [
          -104.84910572528804,
          39.724940516728296
        ]
      },
      "properties": {
        "name": "Aurora Center for Active Adults",
        "address": "30 Del Mar Cir",
        "city": "Aurora",
        "state": "CO",
        "zip": "80011",
        "latitude": 39.724940516728296,
        "longitude": -104.84910572528804
      }
    },
    {
      "type": "Feature",
      "geometry": {
        "type": "Point",
        "coordinates": [
          -104.84771876318169,
          39.73388166458309
        ]
      },
      "properties": {
        "name": "Aurora Public Schools - Educational Service Center 4",
        "address": "1085 Peoria St",
        "city": "Aurora",
        "state": "CO",
        "zip": "80011",
        "latitude": 39.73388166458309,
        "longitude": -104.84771876318169
      }
    },
    {
      "type": "Feature",
      "geometry": {
        "type": "Point",
        "coordinates": [
          -104.80474230787424,
          39.72058253659017
        ]
      },
      "properties": {
        "name": "Aurora Public Schools - Professional Learning and Conference Center",
        "address": "15771 E 1st Ave",
        "city": "Aurora",
        "state": "CO",
        "zip": "80011",
        "latitude": 39.72058253659017,
        "longitude": -104.80474230787424
      }
    },
    {
      "type": "Feature",
      "geometry": {
        "type": "Point",
        "coordinates": [
          -105.00377161101055,
          39.60788423451915
        ]
      },
      "properties": {
        "name": "Bemis Public Library",
        "address": "6014 S Datura St",
        "city": "Littleton",
        "state": "CO",
        "zip": "80120",
        "latitude": 39.60788423451915,
        "longitude": -105.00377161101055
      }
    },
    {
      "type": "Feature",
      "geometry": {
        "type": "Point",
        "coordinates": [
          -104.77474402857561,
          39.66882135612159
        ]
      },
      "properties": {
        "name": "Central Recreation Center",
        "address": "18150 E Vassar Pl",
        "city": "Aurora",
        "state": "CO",
        "zip": "80013",
        "latitude": 39.66882135612159,
        "longitude": -104.77474402857561
      }
    },
    {
      "type": "Feature",
      "geometry": {
        "type": "Point",
        "coordinates": [
          -104.73732039332928,
          39.61991742350876
        ]
      },
      "properties": {
        "name": "Cherry Creek School District - Instructional Support Facility",
        "address": "5416 S Riviera Way",
        "city": "Centennial",
        "state": "CO",
        "zip": "80112",
        "latitude": 39.61991742350876,
        "longitude": -104.73732039332928
      }
    },
    {
      "type": "Feature",
      "geometry": {
        "type": "Point",
        "coordinates": [
          -104.81169759451926,
          39.710939194131676
        ]
      },
      "properties": {
        "name": "City of Aurora Municipal Center",
        "address": "15151 E Alameda Pkwy",
        "city": "Aurora",
        "state": "CO",
        "zip": "80012",
        "latitude": 39.710939194131676,
        "longitude": -104.81169759451926
      }
    },
    {
      "type": "Feature",
      "geometry": {
        "type": "Point",
        "coordinates": [
          -104.93606703235127,
          39.69903579462828
        ]
      },
      "properties": {
        "name": "City of Glendale Municipal Building",
        "address": "950 S. Birch Street",
        "city": "Glendale",
        "state": "CO",
        "zip": "80246",
        "latitude": 39.69903579462828,
        "longitude": -104.93606703235127
      }
    },
    {
      "type": "Feature",
      "geometry": {
        "type": "Point",
        "coordinates": [
          -105.02659358606886,
          39.641923555298085
        ]
      },
      "properties": {
        "name": "City of Sheridan Municipal Building",
        "address": "4101 S Federal Blvd",
        "city": "Sheridan",
        "state": "CO",
        "zip": "80110",
        "latitude": 39.641923555298085,
        "longitude": -105.02659358606886
      }
    },
    {
      "type": "Feature",
      "geometry": {
        "type": "Point",
        "coordinates": [
          -104.80270212086928,
          39.71800229439271
        ]
      },
      "properties": {
        "name": "Community College of Aurora - CentreTech Campus",
        "address": "16000 E CentreTech Pkwy",
        "city": "Aurora",
        "state": "CO",
        "zip": "80011",
        "latitude": 39.71800229439271,
        "longitude": -104.80270212086928
      }
    },
    {
      "type": "Feature",
      "geometry": {
        "type": "Point",
        "coordinates": [
          -104.90887411861293,
          39.68723582366944
        ]
      },
      "properties": {
        "name": "Cook Park Recreation Center",
        "address": "7100 Cherry Creek S Dr",
        "city": "Denver",
        "state": "CO",
        "zip": "80224",
        "latitude": 39.68723582366944,
        "longitude": -104.90887411861293
      }
    },
    {
      "type": "Feature",
      "geometry": {
        "type": "Point",
        "coordinates": [
          -104.99832744047103,
          39.65488297539241
        ]
      },
      "properties": {
        "name": "Englewood Civic Center",
        "address": "1000 Englewood Pkwy",
        "city": "Englewood",
        "state": "CO",
        "zip": "80110",
        "latitude": 39.65488297539241,
        "longitude": -104.99832744047103
      }
    },
    {
      "type": "Feature",
      "geometry": {
        "type": "Point",
        "coordinates": [
          -104.90318859424694,
          39.60659716215891
        ]
      },
      "properties": {
        "name": "Greenwood Village City Hall",
        "address": "6060 S Quebec St",
        "city": "Greenwood Village",
        "state": "CO",
        "zip": "80111",
        "latitude": 39.60659716215891,
        "longitude": -104.90318859424694
      }
    },
    {
      "type": "Feature",
      "geometry": {
        "type": "Point",
        "coordinates": [
          -104.83107979351828,
          39.663533414404135
        ]
      },
      "properties": {
        "name": "Heather Gardens Clubhouse",
        "address": "2888 S Heather Gardens Way",
        "city": "Aurora",
        "state": "CO",
        "zip": "80014",
        "latitude": 39.663533414404135,
        "longitude": -104.83107979351828
      }
    },
    {
      "type": "Feature",
      "geometry": {
        "type": "Point",
        "coordinates": [
          -104.22382817345328,
          39.703337577016484
        ]
      },
      "properties": {
        "name": "Kelver Library",
        "address": "585 S Main St",
        "city": "Byers",
        "state": "CO",
        "zip": "80103",
        "latitude": 39.703337577016484,
        "longitude": -104.22382817345328
      }
    },
    {
      "type": "Feature",
      "geometry": {
        "type": "Point",
        "coordinates": [
          -104.87349903416151,
          39.73997991802986
        ]
      },
      "properties": {
        "name": "Martin Luther King, Jr. Library",
        "address": "9898 E. Colfax Ave",
        "city": "Aurora",
        "state": "CO",
        "zip": "80010",
        "latitude": 39.73997991802986,
        "longitude": -104.87349903416151
      }
    },
    {
      "type": "Feature",
      "geometry": {
        "type": "Point",
        "coordinates": [
          -104.80811835911354,
          39.651067400729026
        ]
      },
      "properties": {
        "name": "Mission Viejo Library",
        "address": "15324 E Hampden Cir",
        "city": "Aurora",
        "state": "CO",
        "zip": "80013",
        "latitude": 39.651067400729026,
        "longitude": -104.80811835911354
      }
    },
    {
      "type": "Feature",
      "geometry": {
        "type": "Point",
        "coordinates": [
          -104.70737777251487,
          39.685639554005796
        ]
      },
      "properties": {
        "name": "Murphy Creek Golf Course",
        "address": "1700 S. Old Tom Morris Rd.",
        "city": "Aurora",
        "state": "CO",
        "zip": "80018",
        "latitude": 39.685639554005796,
        "longitude": -104.70737777251487
      }
    },
    {
      "type": "Feature",
      "geometry": {
        "type": "Point",
        "coordinates": [
          -104.81920306411358,
          39.62148268315485
        ]
      },
      "properties": {
        "name": "Parkside Village Retirement Resort",
        "address": "14501 E Crestline Dr",
        "city": "Aurora",
        "state": "CO",
        "zip": "80015",
        "latitude": 39.62148268315485,
        "longitude": -104.81920306411358
      }
    },
    {
      "type": "Feature",
      "geometry": {
        "type": "Point",
        "coordinates": [
          -104.78980422250675,
          39.723860185954656
        ]
      },
      "properties": {
        "name": "Pickens Technical College",
        "address": "500 Airport Blvd Bldg E",
        "city": "Aurora",
        "state": "CO",
        "zip": "80011",
        "latitude": 39.723860185954656,
        "longitude": -104.78980422250675
      }
    },
    {
      "type": "Feature",
      "geometry": {
        "type": "Point",
        "coordinates": [
          -104.7672439390529,
          39.618304079420255
        ]
      },
      "properties": {
        "name": "Smoky Hill Library",
        "address": "5430 S Biscay Cir",
        "city": "Centennial",
        "state": "CO",
        "zip": "80015",
        "latitude": 39.618304079420255,
        "longitude": -104.7672439390529
      }
    },
    {
      "type": "Feature",
      "geometry": {
        "type": "Point",
        "coordinates": [
          -104.88248277970825,
          39.5749075175367
        ]
      },
      "properties": {
        "name": "South Metro Fire Rescue Headquarters",
        "address": "9195 E. Mineral Ave.",
        "city": "Centennial",
        "state": "CO",
        "zip": "80112",
        "latitude": 39.5749075175367,
        "longitude": -104.88248277970825
      }
    },
    {
      "type": "Feature",
      "geometry": {
        "type": "Point",
        "coordinates": [
          -104.96423713720502,
          39.590837240246614
        ]
      },
      "properties": {
        "name": "Southglenn Library",
        "address": "6972 S Vine St",
        "city": "Centennial",
        "state": "CO",
        "zip": "80122",
        "latitude": 39.590837240246614,
        "longitude": -104.96423713720502
      }
    },
    {
      "type": "Feature",
      "geometry": {
        "type": "Point",
        "coordinates": [
          -104.83927406139036,
          39.578443638912624
        ]
      },
      "properties": {
        "name": "Space & Cafe at Arapahoe Libraries",
        "address": "12855 E. Adam Aircraft Cir.",
        "city": "Englewood",
        "state": "CO",
        "zip": "80112",
        "latitude": 39.578443638912624,
        "longitude": -104.83927406139036
      }
    },
    {
      "type": "Feature",
      "geometry": {
        "type": "Point",
        "coordinates": [
          -104.70901570770036,
          39.590343177333324
        ]
      },
      "properties": {
        "name": "Tallyn's Reach Library",
        "address": "23911 E Arapahoe Rd",
        "city": "Aurora",
        "state": "CO",
        "zip": "80016",
        "latitude": 39.590343177333324,
        "longitude": -104.70901570770036
      }
    },
    {
      "type": "Feature",
      "geometry": {
        "type": "Point",
        "coordinates": [
          -104.83532054700967,
          39.69758355448659
        ]
      },
      "properties": {
        "name": "The Avenue Church",
        "address": "13231 E Mississippi Ave",
        "city": "Aurora",
        "state": "CO",
        "zip": "80012",
        "latitude": 39.69758355448659,
        "longitude": -104.83532054700967
      }
    },
    {
      "type": "Feature",
      "geometry": {
        "type": "Point",
        "coordinates": [
          -104.79561016112257,
          39.61050762501705
        ]
      },
      "properties": {
        "name": "Trails Recreation Center",
        "address": "16799 E. Lake Ave.",
        "city": "Centennial",
        "state": "CO",
        "zip": "80016",
        "latitude": 39.61050762501705,
        "longitude": -104.79561016112257
      }
    },
    {
      "type": "Feature",
      "geometry": {
        "type": "Point",
        "coordinates": [
          -104.70154232405697,
          39.72399192592024
        ]
      },
      "properties": {
        "name": "Vista PEAK Preparatory School",
        "address": "24500 E. 6th Ave",
        "city": "Aurora",
        "state": "CO",
        "zip": "80018",
        "latitude": 39.72399192592024,
        "longitude": -104.70154232405697
      }
    }
  ]
}